{"type": "FeatureCollection", "features": [ {"type": "Feature", "properties": {"norad_id": 66866, "name": "STARLINK-36126", "group": "last-30-days", "lat": -42.89349523847784, "lon": 45.26176467697933, "alt_km": 290.36915194292214, "timestamp": "2025-12-11T08:58:25.856806+00:00", "meta": {"OBJECT_NAME": "STARLINK-36126", "OBJECT_ID": "2025-281U", "EPOCH": "2025-12-10T18:00:02.000160", "MEAN_MOTION": 15.96440327, "ECCENTRICITY": 0.0001689, "INCLINATION": 43.002, "RA_OF_ASC_NODE": 134.6885, "ARG_OF_PERICENTER": 273.0721, "MEAN_ANOMALY": 11.8299, "EPHEMERIS_TYPE": 0, "CLASSIFICATION_TYPE": "U", "NORAD_CAT_ID": 66866, "ELEMENT_SET_NO": 999, "REV_AT_EPOCH": 247, "BSTAR": -0.0028095, "MEAN_MOTION_DOT": -0.01224235, "MEAN_MOTION_DDOT": 0.0004571}, "tle": {"line1": "1 66866U 25281U   25344.75002315 -.01224235  45710-3 -28095-2 0  9998", "line2": "2 66866  43.0020 134.6885 0001689 273.0721  11.8299 15.96440327  2478"}}, "geometry": {"type": "Point", "coordinates": [45.26176467697933, -42.89349523847784]}}, {"type": "Feature", "properties": {"norad_id": 66867, "name": "STARLINK-36101", "group": "last-30-days", "lat": -42.68493816608559, "lon": 49.01301268573487, "alt_km": 290.1381736089197, "timestamp": "2025-12-11T08:58:25.856819+00:00", "meta": {"OBJECT_NAME": "STARLINK-36101", "OBJECT_ID": "2025-281V", "EPOCH": "2025-12-10T18:00:02.000160", "MEAN_MOTION": 15.96520047, "ECCENTRICITY": 0.0001686, "INCLINATION": 43.0022, "RA_OF_ASC_NODE": 134.6817, "ARG_OF_PERICENTER": 274.9191, "MEAN_ANOMALY": 12.5728, "EPHEMERIS_TYPE": 0, "CLASSIFICATION_TYPE": "U", "NORAD_CAT_ID": 66867, "ELEMENT_SET_NO": 999, "REV_AT_EPOCH": 247, "BSTAR": -0.0027961, "MEAN_MOTION_DOT": -0.01223728, "MEAN_MOTION_DDOT": 0.00045712}, "tle": {"line1": "1 66867U 25281V   25344.75002315 -.01223728  45712-3 -27961-2 0  9998", "line2": "2 66867  43.0022 134.6817 0001686 274.9191  12.5728 15.96520047  2477"}}, "geometry": {"type": "Point", "coordinates": [49.01301268573487, -42.68493816608559]}}, {"type": "Feature", "properties": {"norad_id": 66868, "name": "STARLINK-36108", "group": "last-30-days", "lat": -42.3234944167753, "lon": 53.01803055890797, "alt_km": 289.8943076453097, "timestamp": "2025-12-11T08:58:25.856830+00:00", "meta": {"OBJECT_NAME": "STARLINK-36108", "OBJECT_ID": "2025-281W", "EPOCH": "2025-12-10T18:00:02.000160", "MEAN_MOTION": 15.96614278, "ECCENTRICITY": 0.0001671, "INCLINATION": 43.002, "RA_OF_ASC_NODE": 134.6746, "ARG_OF_PERICENTER": 272.8842, "MEAN_ANOMALY": 17.3898, "EPHEMERIS_TYPE": 0, "CLASSIFICATION_TYPE": "U", "NORAD_CAT_ID": 66868, "ELEMENT_SET_NO": 999, "REV_AT_EPOCH": 247, "BSTAR": -0.0028019, "MEAN_MOTION_DOT": -0.01232542, "MEAN_MOTION_DDOT": 0.00046361}, "tle": {"line1": "1 66868U 25281W   25344.75002315 -.01232542  46361-3 -28019-2 0  9999", "line2": "2 66868  43.0020 134.6746 0001671 272.8842  17.3898 15.96614278  2472"}}, "geometry": {"type": "Point", "coordinates": [53.01803055890797, -42.3234944167753]}}, {"type": "Feature", "properties": {"norad_id": 66869, "name": "STARLINK-36092", "group": "last-30-days", "lat": -41.9490329066619, "lon": 56.080844080863216, "alt_km": 289.64594930391013, "timestamp": "2025-12-11T08:58:25.856840+00:00", "meta": {"OBJECT_NAME": "STARLINK-36092", "OBJECT_ID": "2025-281X", "EPOCH": "2025-12-10T18:00:02.000160", "MEAN_MOTION": 15.96687641, "ECCENTRICITY": 0.0001731, "INCLINATION": 43.0021, "RA_OF_ASC_NODE": 134.6691, "ARG_OF_PERICENTER": 274.3433, "MEAN_ANOMALY": 18.0804, "EPHEMERIS_TYPE": 0, "CLASSIFICATION_TYPE": "U", "NORAD_CAT_ID": 66869, "ELEMENT_SET_NO": 999, "REV_AT_EPOCH": 247, "BSTAR": -0.0027998, "MEAN_MOTION_DOT": -0.01236576, "MEAN_MOTION_DDOT": 0.00046674}, "tle": {"line1": "1 66869U 25281X   25344.75002315 -.01236576  46674-3 -27998-2 0  9993", "line2": "2 66869  43.0021 134.6691 0001731 274.3433  18.0804 15.96687641  2472"}}, "geometry": {"type": "Point", "coordinates": [56.080844080863216, -41.9490329066619]}}, {"type": "Feature", "properties": {"norad_id": 66870, "name": "STARLINK-36114", "group": "last-30-days", "lat": -41.335642289937745, "lon": 60.03737331776171, "alt_km": 289.4530221808127, "timestamp": "2025-12-11T08:58:25.856852+00:00", "meta": {"OBJECT_NAME": "STARLINK-36114", "OBJECT_ID": "2025-281Y", "EPOCH": "2025-12-10T18:00:02.000160", "MEAN_MOTION": 15.96782568, "ECCENTRICITY": 0.0001629, "INCLINATION": 43.002, "RA_OF_ASC_NODE": 134.662, "ARG_OF_PERICENTER": 272.0351, "MEAN_ANOMALY": 23.2092, "EPHEMERIS_TYPE": 0, "CLASSIFICATION_TYPE": "U", "NORAD_CAT_ID": 66870, "ELEMENT_SET_NO": 999, "REV_AT_EPOCH": 247, "BSTAR": -0.002797, "MEAN_MOTION_DOT": -0.01241749, "MEAN_MOTION_DDOT": 0.00047077}, "tle": {"line1": "1 66870U 25281Y   25344.75002315 -.01241749  47077-3 -27970-2 0  9991", "line2": "2 66870  43.0020 134.6620 0001629 272.0351  23.2092 15.96782568  2476"}}, "geometry": {"type": "Point", "coordinates": [60.03737331776171, -41.335642289937745]}}, {"type": "Feature", "properties": {"norad_id": 66871, "name": "STARLINK-36095", "group": "last-30-days", "lat": -40.570503101761595, "lon": 63.9981086463112, "alt_km": 289.1650024070623, "timestamp": "2025-12-11T08:58:25.856862+00:00", "meta": {"OBJECT_NAME": "STARLINK-36095", "OBJECT_ID": "2025-281Z", "EPOCH": "2025-12-10T18:00:02.000160", "MEAN_MOTION": 15.96880545, "ECCENTRICITY": 0.000163, "INCLINATION": 43.0018, "RA_OF_ASC_NODE": 134.6543, "ARG_OF_PERICENTER": 274.017, "MEAN_ANOMALY": 24.1112, "EPHEMERIS_TYPE": 0, "CLASSIFICATION_TYPE": "U", "NORAD_CAT_ID": 66871, "ELEMENT_SET_NO": 999, "REV_AT_EPOCH": 247, "BSTAR": -0.0027933, "MEAN_MOTION_DOT": -0.01246757, "MEAN_MOTION_DDOT": 0.00047473}, "tle": {"line1": "1 66871U 25281Z   25344.75002315 -.01246757  47473-3 -27933-2 0  9995", "line2": "2 66871  43.0018 134.6543 0001630 274.0170  24.1112 15.96880545  2478"}}, "geometry": {"type": "Point", "coordinates": [63.9981086463112, -40.570503101761595]}}, {"type": "Feature", "properties": {"norad_id": 66872, "name": "STARLINK-36082", "group": "last-30-days", "lat": -39.98924074456726, "lon": 66.57370733960117, "alt_km": 288.90659184408923, "timestamp": "2025-12-11T08:58:25.856874+00:00", "meta": {"OBJECT_NAME": "STARLINK-36082", "OBJECT_ID": "2025-281AA", "EPOCH": "2025-12-10T18:00:02.000160", "MEAN_MOTION": 15.9694067, "ECCENTRICITY": 0.0001725, "INCLINATION": 43.0018, "RA_OF_ASC_NODE": 134.6495, "ARG_OF_PERICENTER": 271.8713, "MEAN_ANOMALY": 28.1659, "EPHEMERIS_TYPE": 0, "CLASSIFICATION_TYPE": "U", "NORAD_CAT_ID": 66872, "ELEMENT_SET_NO": 999, "REV_AT_EPOCH": 247, "BSTAR": -0.0027683, "MEAN_MOTION_DOT": -0.01239806, "MEAN_MOTION_DDOT": 0.00047019}, "tle": {"line1": "1 66872U 25281AA  25344.75002315 -.01239806  47019-3 -27683-2 0  9991", "line2": "2 66872  43.0018 134.6495 0001725 271.8713  28.1659 15.96940670  2474"}}, "geometry": {"type": "Point", "coordinates": [66.57370733960117, -39.98924074456726]}}, {"type": "Feature", "properties": {"norad_id": 66873, "name": "STARLINK-36128", "group": "last-30-days", "lat": -37.306337101295824, "lon": 75.87115607369743, "alt_km": 288.17675009202685, "timestamp": "2025-12-11T08:58:25.856885+00:00", "meta": {"OBJECT_NAME": "STARLINK-36128", "OBJECT_ID": "2025-281AB", "EPOCH": "2025-12-10T18:00:02.000160", "MEAN_MOTION": 15.97195544, "ECCENTRICITY": 0.0001713, "INCLINATION": 43.0015, "RA_OF_ASC_NODE": 134.6311, "ARG_OF_PERICENTER": 272.8425, "MEAN_ANOMALY": 34.4024, "EPHEMERIS_TYPE": 0, "CLASSIFICATION_TYPE": "U", "NORAD_CAT_ID": 66873, "ELEMENT_SET_NO": 999, "REV_AT_EPOCH": 242, "BSTAR": -0.0027664, "MEAN_MOTION_DOT": -0.01256354, "MEAN_MOTION_DDOT": 0.000483}, "tle": {"line1": "1 66873U 25281AB  25344.75002315 -.01256354  48300-3 -27664-2 0  9992", "line2": "2 66873  43.0015 134.6311 0001713 272.8425  34.4024 15.97195544  2421"}}, "geometry": {"type": "Point", "coordinates": [75.87115607369743, -37.306337101295824]}}, {"type": "Feature", "properties": {"norad_id": 66874, "name": "STARLINK-36129", "group": "last-30-days", "lat": -39.04827255425219, "lon": 70.22258146979361, "alt_km": 288.62019624331424, "timestamp": "2025-12-11T08:58:25.856897+00:00", "meta": {"OBJECT_NAME": "STARLINK-36129", "OBJECT_ID": "2025-281AC", "EPOCH": "2025-12-10T18:00:02.000160", "MEAN_MOTION": 15.97038594, "ECCENTRICITY": 0.0001722, "INCLINATION": 43.0018, "RA_OF_ASC_NODE": 134.6426, "ARG_OF_PERICENTER": 273.407, "MEAN_ANOMALY": 29.3953, "EPHEMERIS_TYPE": 0, "CLASSIFICATION_TYPE": "U", "NORAD_CAT_ID": 66874, "ELEMENT_SET_NO": 999, "REV_AT_EPOCH": 247, "BSTAR": -0.0027677, "MEAN_MOTION_DOT": -0.01246183, "MEAN_MOTION_DDOT": 0.0004751}, "tle": {"line1": "1 66874U 25281AC  25344.75002315 -.01246183  47510-3 -27677-2 0  9998", "line2": "2 66874  43.0018 134.6426 0001722 273.4070  29.3953 15.97038594  2475"}}, "geometry": {"type": "Point", "coordinates": [70.22258146979361, -39.04827255425219]}}, {"type": "Feature", "properties": {"norad_id": 66875, "name": "STARLINK-36053", "group": "last-30-days", "lat": -36.24922757982535, "lon": 78.82873230416112, "alt_km": 287.90431169105705, "timestamp": "2025-12-11T08:58:25.856908+00:00", "meta": {"OBJECT_NAME": "STARLINK-36053", "OBJECT_ID": "2025-281AD", "EPOCH": "2025-12-10T18:00:02.000160", "MEAN_MOTION": 15.97277493, "ECCENTRICITY": 0.0001692, "INCLINATION": 43.0017, "RA_OF_ASC_NODE": 134.6244, "ARG_OF_PERICENTER": 274.4156, "MEAN_ANOMALY": 35.2421, "EPHEMERIS_TYPE": 0, "CLASSIFICATION_TYPE": "U", "NORAD_CAT_ID": 66875, "ELEMENT_SET_NO": 999, "REV_AT_EPOCH": 242, "BSTAR": -0.0027453, "MEAN_MOTION_DOT": -0.01252507, "MEAN_MOTION_DDOT": 0.0004807}, "tle": {"line1": "1 66875U 25281AD  25344.75002315 -.01252507  48070-3 -27453-2 0  9990", "line2": "2 66875  43.0017 134.6244 0001692 274.4156  35.2421 15.97277493  2429"}}, "geometry": {"type": "Point", "coordinates": [78.82873230416112, -36.24922757982535]}}]}